{
  "type": "FeatureCollection",
  "crs": {
    "type": "name",
    "properties": {
      "name": "urn:ogc:def:crs:OGC:1.3:CRS84"
    }
  },
  "features": [
    {
      "type": "Feature",
      "id": "field-perundurai-01",
      "properties": {
        "name": "Perundurai Delta Paddy Field A",
        "farmer_name": "Vijay Mahes",
        "crop_name": "Paddy (Rice)",
        "variety": "CO 51",
        "soil_type": "Red Loam",
        "irrigation_source": "Borewell / Drip",
        "area_hectares": 2.45,
        "village": "Perundurai",
        "district": "Erode"
      },
      "geometry": {
        "type": "Polygon",
        "coordinates": [
          [
            [77.5810, 11.2720],
            [77.5845, 11.2720],
            [77.5845, 11.2755],
            [77.5810, 11.2755],
            [77.5810, 11.2720]
          ]
        ]
      }
    },
    {
      "type": "Feature",
      "id": "field-bhavani-02",
      "properties": {
        "name": "Bhavani River Basin Cotton Field B",
        "farmer_name": "R. Murugesan",
        "crop_name": "Cotton",
        "variety": "MCU 5",
        "soil_type": "Black Clay",
        "irrigation_source": "Canal / Furrow",
        "area_hectares": 3.12,
        "village": "Bhavani",
        "district": "Erode"
      },
      "geometry": {
        "type": "Polygon",
        "coordinates": [
          [
            [77.6750, 11.4410],
            [77.6790, 11.4410],
            [77.6790, 11.4450],
            [77.6750, 11.4450],
            [77.6750, 11.4410]
          ]
        ]
      }
    },
    {
      "type": "Feature",
      "id": "field-gobi-03",
      "properties": {
        "name": "Gobichettipalayam Millet Terrace C",
        "farmer_name": "K. Selvi",
        "crop_name": "Finger Millet (Ragi)",
        "variety": "CO 15",
        "soil_type": "Sandy Loam",
        "irrigation_source": "Rainfed / Sprinkler",
        "area_hectares": 1.85,
        "village": "Gobichettipalayam",
        "district": "Erode"
      },
      "geometry": {
        "type": "Polygon",
        "coordinates": [
          [
            [77.4280, 11.4550],
            [77.4320, 11.4550],
            [77.4320, 11.4590],
            [77.4280, 11.4590],
            [77.4280, 11.4550]
          ]
        ]
      }
    }
  ]
}
